start=new Date('2022-05-05T00:00:00.000Z').valueOf();
sats=[{"PERIAPSIS":"348.980","RCS_SIZE":"LARGE","SITE":"AFETR","LAUNCH_DATE":"2022-03-19","MEAN_ANOMALY":"36.1747","MEAN_MOTION_DDOT":"0.0000000000000","MEAN_MOTION_DOT":"0.00011681","MEAN_MOTION":"15.73206000","FILE":"3429148","DECAY_DATE":null,"REF_FRAME":"TEME","PERIOD":"91.533","GP_ID":"202718966","ARG_OF_PERICENTER":"61.9098","COUNTRY_CODE":"US","RA_OF_ASC_NODE":"272.8518","ELEMENT_SET_NO":"999","TLE_LINE2":"2 52121  53.2144 272.8518 0001134  61.9098  36.1747 15.73206000  3709","APOAPSIS":"350.506","OBJECT_NAME":"STARLINK-3678","BSTAR":"0.00008750700000","SEMIMAJOR_AXIS":"6727.878","ECCENTRICITY":"0.00011340","CLASSIFICATION_TYPE":"U","INCLINATION":"53.2144","CENTER_NAME":"EARTH","TLE_LINE1":"1 52121U 22029AK  22124.91668981  .00011681  00000-0  87507-4 0  9993","EPOCH":"2022-05-04T22:00:01.999584","OBJECT_ID":"2022-029AK","NORAD_CAT_ID":"52121","EPHEMERIS_TYPE":"0","TIME_SYSTEM":"UTC","REV_AT_EPOCH":"370","MEAN_ELEMENT_THEORY":"SGP4","OBJECT_TYPE":"PAYLOAD"},{"RCS_SIZE":"LARGE","SITE":"AFETR","PERIAPSIS":"381.740","MEAN_MOTION":"15.61791528","LAUNCH_DATE":"2022-03-19","MEAN_ANOMALY":"220.6104","MEAN_MOTION_DDOT":"0.0000000000000","MEAN_MOTION_DOT":"-0.00713517","PERIOD":"92.202","REF_FRAME":"TEME","ARG_OF_PERICENTER":"81.9308","GP_ID":"202718883","DECAY_DATE":null,"FILE":"3429148","COUNTRY_CODE":"US","ELEMENT_SET_NO":"999","RA_OF_ASC_NODE":"273.2032","CLASSIFICATION_TYPE":"U","ECCENTRICITY":"0.00011010","OBJECT_NAME":"STARLINK-3726","BSTAR":"-0.00882400000000","SEMIMAJOR_AXIS":"6760.619","TLE_LINE2":"2 52122  53.2174 273.2032 0001101  81.9308 220.6104 15.61791528  3707","APOAPSIS":"383.228","NORAD_CAT_ID":"52122","OBJECT_ID":"2022-029AL","CENTER_NAME":"EARTH","TLE_LINE1":"1 52122U 22029AL  22124.91668981 -.00713517  00000-0 -88240-2 0  9996","EPOCH":"2022-05-04T22:00:01.999584","INCLINATION":"53.2174","OBJECT_TYPE":"PAYLOAD","TIME_SYSTEM":"UTC","REV_AT_EPOCH":"370","MEAN_ELEMENT_THEORY":"SGP4","EPHEMERIS_TYPE":"0"},{"EPHEMERIS_TYPE":"0","OBJECT_TYPE":"PAYLOAD","TIME_SYSTEM":"UTC","REV_AT_EPOCH":"370","MEAN_ELEMENT_THEORY":"SGP4","CENTER_NAME":"EARTH","TLE_LINE1":"1 52123U 22029AM  22124.91668981 -.00051894  00000-0 -36683-3 0  9995","EPOCH":"2022-05-04T22:00:01.999584","INCLINATION":"53.2144","NORAD_CAT_ID":"52123","OBJECT_ID":"2022-029AM","OBJECT_NAME":"STARLINK-3725","BSTAR":"-0.00036683000000","SEMIMAJOR_AXIS":"6727.755","TLE_LINE2":"2 52123  53.2144 272.8492 0001319  52.5982  46.6218 15.73249276  3706","APOAPSIS":"350.507","CLASSIFICATION_TYPE":"U","ECCENTRICITY":"0.00013190","RA_OF_ASC_NODE":"272.8492","ELEMENT_SET_NO":"999","COUNTRY_CODE":"US","FILE":"3429148","PERIOD":"91.530","REF_FRAME":"TEME","ARG_OF_PERICENTER":"52.5982","GP_ID":"202719043","DECAY_DATE":null,"MEAN_MOTION":"15.73249276","LAUNCH_DATE":"2022-03-19","MEAN_MOTION_DDOT":"0.0000000000000","MEAN_MOTION_DOT":"-0.00051894","MEAN_ANOMALY":"46.6218","PERIAPSIS":"348.732","RCS_SIZE":"LARGE","SITE":"AFETR"},{"TLE_LINE2":"2 52124  53.2174 273.2150 0001117  76.0358 227.9005 15.61801172  3704","APOAPSIS":"383.211","BSTAR":"-0.00882150000000","OBJECT_NAME":"STARLINK-3684","SEMIMAJOR_AXIS":"6760.591","ECCENTRICITY":"0.00011170","CLASSIFICATION_TYPE":"U","RA_OF_ASC_NODE":"273.2150","ELEMENT_SET_NO":"999","EPHEMERIS_TYPE":"0","TIME_SYSTEM":"UTC","REV_AT_EPOCH":"370","MEAN_ELEMENT_THEORY":"SGP4","OBJECT_TYPE":"PAYLOAD","INCLINATION":"53.2174","CENTER_NAME":"EARTH","TLE_LINE1":"1 52124U 22029AN  22124.91668981 -.00713581  00000-0 -88215-2 0  9991","EPOCH":"2022-05-04T22:00:01.999584","OBJECT_ID":"2022-029AN","NORAD_CAT_ID":"52124","LAUNCH_DATE":"2022-03-19","MEAN_MOTION_DOT":"-0.00713581","MEAN_MOTION_DDOT":"0.0000000000000","MEAN_ANOMALY":"227.9005","MEAN_MOTION":"15.61801172","PERIAPSIS":"381.701","RCS_SIZE":"LARGE","SITE":"AFETR","COUNTRY_CODE":"US","FILE":"3429148","DECAY_DATE":null,"PERIOD":"92.201","REF_FRAME":"TEME","GP_ID":"202719148","ARG_OF_PERICENTER":"76.0358"},{"COUNTRY_CODE":"US","DECAY_DATE":null,"ARG_OF_PERICENTER":"53.4543","GP_ID":"202719311","REF_FRAME":"TEME","PERIOD":"91.532","FILE":"3429148","MEAN_MOTION_DDOT":"0.0000000000000","MEAN_ANOMALY":"46.3026","MEAN_MOTION_DOT":"0.00024101","LAUNCH_DATE":"2022-03-19","MEAN_MOTION":"15.73213451","SITE":"AFETR","RCS_SIZE":"LARGE","PERIAPSIS":"348.993","MEAN_ELEMENT_THEORY":"SGP4","REV_AT_EPOCH":"370","TIME_SYSTEM":"UTC","OBJECT_TYPE":"PAYLOAD","EPHEMERIS_TYPE":"0","OBJECT_ID":"2022-029AP","NORAD_CAT_ID":"52125","INCLINATION":"53.2143","TLE_LINE1":"1 52125U 22029AP  22124.91668981  .00024101  00000-0  17554-3 0  9992","EPOCH":"2022-05-04T22:00:01.999584","CENTER_NAME":"EARTH","ECCENTRICITY":"0.00010840","CLASSIFICATION_TYPE":"U","APOAPSIS":"350.451","TLE_LINE2":"2 52125  53.2143 272.8477 0001084  53.4543  46.3026 15.73213451  3702","SEMIMAJOR_AXIS":"6727.857","BSTAR":"0.00017554000000","OBJECT_NAME":"STARLINK-3727","ELEMENT_SET_NO":"999","RA_OF_ASC_NODE":"272.8477"},{"MEAN_MOTION":"15.73240373","LAUNCH_DATE":"2022-03-19","MEAN_ANOMALY":"41.1338","MEAN_MOTION_DDOT":"0.0000000000000","MEAN_MOTION_DOT":"-0.00019293","PERIAPSIS":"348.775","RCS_SIZE":"LARGE","SITE":"AFETR","COUNTRY_CODE":"US","FILE":"3429148","PERIOD":"91.531","REF_FRAME":"TEME","ARG_OF_PERICENTER":"57.4773","GP_ID":"202719228","DECAY_DATE":null,"BSTAR":"-0.00013313000000","OBJECT_NAME":"STARLINK-3732","SEMIMAJOR_AXIS":"6727.780","TLE_LINE2":"2 52126  53.2146 272.8514 0001293  57.4773  41.1338 15.73240373  3701","APOAPSIS":"350.515","CLASSIFICATION_TYPE":"U","ECCENTRICITY":"0.00012930","RA_OF_ASC_NODE":"272.8514","ELEMENT_SET_NO":"999","EPHEMERIS_TYPE":"0","OBJECT_TYPE":"PAYLOAD","TIME_SYSTEM":"UTC","MEAN_ELEMENT_THEORY":"SGP4","REV_AT_EPOCH":"370","CENTER_NAME":"EARTH","TLE_LINE1":"1 52126U 22029AQ  22124.91668981 -.00019293  00000-0 -13313-3 0  9990","EPOCH":"2022-05-04T22:00:01.999584","INCLINATION":"53.2146","NORAD_CAT_ID":"52126","OBJECT_ID":"2022-029AQ"},{"RA_OF_ASC_NODE":"272.8454","ELEMENT_SET_NO":"999","TLE_LINE2":"2 52127  53.2145 272.8454 0001351  58.6029  42.3478 15.73223841  3705","APOAPSIS":"350.601","OBJECT_NAME":"STARLINK-3715","BSTAR":"-0.00020926000000","SEMIMAJOR_AXIS":"6727.827","ECCENTRICITY":"0.00013510","CLASSIFICATION_TYPE":"U","INCLINATION":"53.2145","CENTER_NAME":"EARTH","EPOCH":"2022-05-04T22:00:01.999584","TLE_LINE1":"1 52127U 22029AR  22124.91668981 -.00029914  00000-0 -20926-3 0  9990","OBJECT_ID":"2022-029AR","NORAD_CAT_ID":"52127","EPHEMERIS_TYPE":"0","TIME_SYSTEM":"UTC","MEAN_ELEMENT_THEORY":"SGP4","REV_AT_EPOCH":"370","OBJECT_TYPE":"PAYLOAD","PERIAPSIS":"348.783","RCS_SIZE":"LARGE","SITE":"AFETR","LAUNCH_DATE":"2022-03-19","MEAN_MOTION_DDOT":"0.0000000000000","MEAN_ANOMALY":"42.3478","MEAN_MOTION_DOT":"-0.00029914","MEAN_MOTION":"15.73223841","FILE":"3429148","DECAY_DATE":null,"REF_FRAME":"TEME","PERIOD":"91.532","ARG_OF_PERICENTER":"58.6029","GP_ID":"202719388","COUNTRY_CODE":"US"},{"OBJECT_ID":"2022-029AT","NORAD_CAT_ID":"52129","INCLINATION":"53.2144","TLE_LINE1":"1 52129U 22029AT  22124.91668981  .00023984  00000-0  17478-3 0  9999","EPOCH":"2022-05-04T22:00:01.999584","CENTER_NAME":"EARTH","REV_AT_EPOCH":"370","MEAN_ELEMENT_THEORY":"SGP4","TIME_SYSTEM":"UTC","OBJECT_TYPE":"PAYLOAD","EPHEMERIS_TYPE":"0","ELEMENT_SET_NO":"999","RA_OF_ASC_NODE":"272.8431","ECCENTRICITY":"0.00013160","CLASSIFICATION_TYPE":"U","APOAPSIS":"350.632","TLE_LINE2":"2 52129  53.2144 272.8431 0001316  48.5649  53.5329 15.73204770  3707","SEMIMAJOR_AXIS":"6727.882","BSTAR":"0.00017478000000","OBJECT_NAME":"STARLINK-3661","DECAY_DATE":null,"GP_ID":"202718804","ARG_OF_PERICENTER":"48.5649","PERIOD":"91.533","REF_FRAME":"TEME","FILE":"3429148","COUNTRY_CODE":"US","SITE":"AFETR","RCS_SIZE":"LARGE","PERIAPSIS":"348.861","MEAN_MOTION_DDOT":"0.0000000000000","MEAN_ANOMALY":"53.5329","MEAN_MOTION_DOT":"0.00023984","LAUNCH_DATE":"2022-03-19","MEAN_MOTION":"15.73204770"},{"ECCENTRICITY":"0.00012510","CLASSIFICATION_TYPE":"U","APOAPSIS":"350.521","TLE_LINE2":"2 52131  53.2143 272.8414 0001251  52.8159  49.8543 15.73228315  3709","SEMIMAJOR_AXIS":"6727.814","BSTAR":"-0.00006492600000","OBJECT_NAME":"STARLINK-3711","ELEMENT_SET_NO":"999","RA_OF_ASC_NODE":"272.8414","REV_AT_EPOCH":"370","MEAN_ELEMENT_THEORY":"SGP4","TIME_SYSTEM":"UTC","OBJECT_TYPE":"PAYLOAD","EPHEMERIS_TYPE":"0","OBJECT_ID":"2022-029AV","NORAD_CAT_ID":"52131","INCLINATION":"53.2143","EPOCH":"2022-05-04T22:00:01.999584","TLE_LINE1":"1 52131U 22029AV  22124.91668981 -.00009732  00000-0 -64926-4 0  9990","CENTER_NAME":"EARTH","MEAN_MOTION_DDOT":"0.0000000000000","MEAN_ANOMALY":"49.8543","MEAN_MOTION_DOT":"-0.00009732","LAUNCH_DATE":"2022-03-19","MEAN_MOTION":"15.73228315","SITE":"AFETR","RCS_SIZE":"LARGE","PERIAPSIS":"348.838","COUNTRY_CODE":"US","DECAY_DATE":null,"GP_ID":"202718967","ARG_OF_PERICENTER":"52.8159","REF_FRAME":"TEME","PERIOD":"91.532","FILE":"3429148"},{"RCS_SIZE":"LARGE","SITE":"AFETR","PERIAPSIS":"348.936","MEAN_MOTION":"15.73209603","LAUNCH_DATE":"2022-03-19","MEAN_MOTION_DDOT":"0.0000000000000","MEAN_MOTION_DOT":"0.00012482","MEAN_ANOMALY":"49.8417","REF_FRAME":"TEME","PERIOD":"91.533","GP_ID":"202718884","ARG_OF_PERICENTER":"51.6764","DECAY_DATE":null,"FILE":"3429148","COUNTRY_CODE":"US","ELEMENT_SET_NO":"999","RA_OF_ASC_NODE":"272.8447","CLASSIFICATION_TYPE":"U","ECCENTRICITY":"0.00011850","BSTAR":"0.00009318100000","OBJECT_NAME":"STARLINK-3718","SEMIMAJOR_AXIS":"6727.868","TLE_LINE2":"2 52132  53.2144 272.8447 0001185  51.6764  49.8417 15.73209603  3701","APOAPSIS":"350.530","NORAD_CAT_ID":"52132","OBJECT_ID":"2022-029AW","CENTER_NAME":"EARTH","TLE_LINE1":"1 52132U 22029AW  22124.91668981  .00012482  00000-0  93181-4 0  9990","EPOCH":"2022-05-04T22:00:01.999584","INCLINATION":"53.2144","OBJECT_TYPE":"PAYLOAD","TIME_SYSTEM":"UTC","REV_AT_EPOCH":"370","MEAN_ELEMENT_THEORY":"SGP4","EPHEMERIS_TYPE":"0"}];
